STARLINK-37447          
1 68810C 26089J   26120.83659722 -.02177500  00000+0 -82998-2 0  1208
2 68810  97.2848 326.2525 0001753  91.7682 117.2195 15.88635849    11
STARLINK-37442          
1 68811C 26089K   26120.83937500 -.02155700  00000+0 -81429-2 0  1208
2 68811  97.2850 326.2566 0001741  88.6726 139.1322 15.88808043    14
STARLINK-37431          
1 68812C 26089L   26120.86576389 -.02108000  00000+0 -79356-2 0  1203
2 68812  97.2846 326.2861 0001302  88.1758 293.4835 15.88854545    12
STARLINK-37426          
1 68813C 26089M   26120.83937500 -.02139000  00000+0 -79302-2 0  1202
2 68813  97.2846 326.2593 0001642  94.2207 139.4427 15.89180170    12
STARLINK-37459          
1 68814C 26089N   26120.84006944 -.02125300  00000+0 -78094-2 0  1208
2 68814  97.2842 326.2609 0001607  97.0938 143.4772 15.89354506    14
STARLINK-37425          
1 68815C 26089P   26120.87687500 -.02089900  00000+0 -76025-2 0  1202
2 68815  97.2839 326.3028 0001614  80.4994  16.3946 15.89539366    13
STARLINK-37315          
1 68816C 26089Q   26120.88590278 -.02080900  00000+0 -76484-2 0  1209
2 68816  97.2841 326.3113 0001652  88.4552  57.0280 15.89325360    12
STARLINK-37444          
1 68817C 26089R   26120.84770833 -.02103900  00000+0 -75443-2 0  1203
2 68817  97.2834 326.2723 0001487 101.0406 192.0850 15.89837152    17
STARLINK-37450          
1 68818C 26089S   26120.84215278 -.02105800  00000+0 -74717-2 0  1205
2 68818  97.2836 326.2677 0001695  94.4183 169.6472 15.90050567    15
STARLINK-37409          
1 68819C 26089T   26120.87687500 -.02073400  00000+0 -73503-2 0  1202
2 68819  97.2835 326.3063 0001525  87.5536  18.1234 15.90051797    12
STARLINK-37470          
1 68820C 26089U   26120.86506944 -.02053500  00000+0 -70694-2 0  1202
2 68820  97.2832 326.2969 0001358  87.5966 318.7256 15.90629178    13
STARLINK-37421          
1 68821C 26089V   26120.84145833 -.02098900  00000+0 -73183-2 0  1206
2 68821  97.2835 326.2700 0001630 100.4556 165.3391 15.90397459    13
STARLINK-37462          
1 68822C 26089W   26120.83590278 -.02088000  00000+0 -72078-2 0  1205
2 68822  97.2833 326.2647 0001626  92.3468 144.3647 15.90592412    15
STARLINK-37410          
1 68823C 26089X   26120.87270833 -.02057800  00000+0 -70394-2 0  1205
2 68823  97.2834 326.3070 0001447  86.6586   6.3128 15.90757974    13
STARLINK-37443          
1 68824C 26089Y   26120.84493056 -.02061100  00000+0 -69566-2 0  1204
2 68824  97.2832 326.2785 0001467  96.7997 200.1988 15.91027016    10
STARLINK-37015          
1 68825C 26089Z   26120.82409722 -.02099800  00000+0 -69950-2 0  1205
2 68825  97.2829 326.2565 0001659  86.9098  93.4893 15.91307163    11
STARLINK-37475          
1 70535C 26094A   26120.82548611 -.01616000  00000+0 -26171-2 0  1207
2 70535  97.2837 134.3326 0001260  63.6692 339.3663 16.04277901    12
STARLINK-37452          
1 70536C 26094B   26120.86923611 -.01572400  00000+0 -25539-2 0  1201
2 70536  97.2838 134.3810 0001118  80.9967 215.4226 16.04206297    10
STARLINK-37495          
1 70537C 26094C   26120.86229167 -.01588800  00000+0 -25597-2 0  1202
2 70537  97.2836 134.3737 0001257  74.4600 182.8152 16.04351760    14
STARLINK-37524          
1 70538C 26094D   26120.82618056 -.01608900  00000+0 -25531-2 0  1200
2 70538  97.2835 134.3345 0001139  71.9576 337.9325 16.04617747    17
STARLINK-37219          
1 70539C 26094E   26120.83381944 -.01577700  00000+0 -21287-2 0  1202
2 70539  97.2811 134.3529 0001532  50.3594  66.2001 16.07279624    18
STARLINK-37538          
1 70540C 26094F   26120.83451389 -.01586700  00000+0 -25004-2 0  1206
2 70540  97.2836 134.3442 0001356  62.1524  36.9348 16.04722920    16
STARLINK-37539          
1 70541C 26094G   26120.81645833 -.01620300  00000+0 -25261-2 0  1204
2 70541  97.2834 134.3246 0001083  83.1752 272.5996 16.04921048    19
STARLINK-37547          
1 70542C 26094H   26120.81645833 -.01600800  00000+0 -24801-2 0  1207
2 70542  97.2834 134.3253 0001105  83.9822 272.6652 16.05016524    14
STARLINK-37465          
1 70543C 26094J   26120.85534722 -.01604400  00000+0 -24868-2 0  1209
2 70543  97.2833 134.3681 0001289  79.2160 142.8626 16.05009318    17
STARLINK-37373          
1 70544C 26094K   26120.83729167 -.01609300  00000+0 -24660-2 0  1201
2 70544  97.2834 134.3487 0001292  70.5331  48.3220 16.05203115    12
STARLINK-37492          
1 70545C 26094L   26120.87409722 -.01595400  00000+0 -24410-2 0  1206
2 70545  97.2833 134.3897 0001155  67.9144 264.5791 16.05221912    17
STARLINK-37482          
1 70546C 26094M   26120.85881944 -.01581700  00000+0 -23940-2 0  1200
2 70546  97.2832 134.3734 0001293  75.1616 170.1285 16.05394411    10
STARLINK-37382          
1 70547C 26094N   26120.87618056 -.01581300  00000+0 -23843-2 0  1203
2 70547  97.2832 134.3925 0001000  69.0017 277.4969 16.05457993    11
STARLINK-37423          
1 70548C 26094P   26120.88173611 -.01564400  00000+0 -23432-2 0  1204
2 70548  97.2830 134.3994 0001203  58.9279 320.7017 16.05560070    15
STARLINK-37476          
1 70549C 26094Q   26120.85881944 -.01560600  00000+0 -23128-2 0  1207
2 70549  97.2828 134.3747 0001339  72.8563 175.2640 16.05733389    10
STARLINK-37463          
1 70550C 26094R   26120.84145833 -.01562200  00000+0 -22890-2 0  1201
2 70550  97.2829 134.3554 0001520  60.8686  87.9948 16.05922030    17
STARLINK-37467          
1 70551C 26094S   26120.82270833 -.01574200  00000+0 -22636-2 0  1200
2 70551  97.2827 134.3362 0001245  59.8452 342.6533 16.06239421    13
STARLINK-37483          
1 70552C 26094T   26120.84354167 -.01572600  00000+0 -22857-2 0  1203
2 70552  97.2827 134.3587 0001412  54.4169 107.5528 16.06061450    12
STARLINK-37468          
1 70553C 26094U   26120.85326389 -.01574500  00000+0 -22599-2 0  1204
2 70553  97.2828 134.3699 0001280  73.9759 146.0630 16.06269036    14
STARLINK-37441          
1 70554C 26094V   26120.82062500 -.01561500  00000+0 -22131-2 0  1202
2 70554  97.2827 134.3342 0001300  59.0918 333.1996 16.06469687    12
STARLINK-37488          
1 70555C 26094W   26120.87270833 -.01578600  00000+0 -22382-2 0  1205
2 70555  97.2827 134.3924 0001000  72.8780 261.5651 16.06472438    16
STARLINK-37388          
1 70556C 26094X   26120.87201389 -.01567000  00000+0 -22030-2 0  1208
2 70556  97.2825 134.3921 0001198  61.3611 270.1314 16.06605076    14
STARLINK-37479          
1 70557C 26094Y   26120.82340278 -.01599200  00000+0 -21790-2 0  1204
2 70557  97.2828 134.3397 0001204  54.7663 358.5668 16.07133355    16
STARLINK-37453          
1 70558C 26094Z   26120.84909722 -.01554000  00000+0 -21601-2 0  1202
2 70558  97.2826 134.3671 0001373  69.7375 130.2269 16.06783989    18
STARLINK-37430          
1 70559C 26094AA  26120.88381944 -.01535600  00000+0 -21336-2 0  1207
2 70559  97.2827 134.4059 0001288  51.2160 350.4044 16.06780977    15
STARLINK-37527          
1 70560C 26097A   26120.86229167  .00821800  00000+0  12538-2 0  1209
2 70560  97.2856 315.4258 0010488 259.9601 229.1316 16.03903761    19
STARLINK-37432          
1 70561C 26097B   26120.85048611  .00936620  00000+0  14239-2 0  1209
2 70561  97.2856 315.4128 0010444 259.5169 161.4810 16.03904426    19
STARLINK-37534          
1 70562C 26097C   26120.85673611  .00829240  00000+0  12632-2 0  1208
2 70562  97.2854 315.4196 0010497 259.3804 197.7137 16.03925534    12
STARLINK-37386          
1 70563C 26097D   26120.83937500  .00798190  00000+0  12188-2 0  1202
2 70563  97.2854 315.4007 0010374 259.4443  97.4774 16.03903273    17
STARLINK-37514          
1 70564C 26097E   26120.83312500  .01023600  00000+0  15519-2 0  1209
2 70564  97.2854 315.3938 0010349 259.7550  61.1239 16.03908876    12
STARLINK-36961          
1 70565C 26097F   26120.85048611  .00925600  00000+0  14044-2 0  1203
2 70565  97.2854 315.4128 0010467 258.8394 162.2442 16.03942232    15
STARLINK-37360          
1 70566C 26097G   26120.87409722  .00748780  00000+0  11400-2 0  1205
2 70566  97.2853 315.4387 0010496 259.2308 298.1302 16.03975012    10
STARLINK-37564          
1 70567C 26097H   26120.88590278  .00770970  00000+0  11723-2 0  1208
2 70567  97.2853 315.4515 0010415 259.0020   6.4871 16.03986054    13
STARLINK-37567          
1 70568C 26097J   26120.87409722  .00741520  00000+0  11287-2 0  1205
2 70568  97.2852 315.4386 0010501 258.8299 298.5594 16.03982947    13
STARLINK-37528          
1 70569C 26097K   26120.85048611  .00833260  00000+0  12658-2 0  1206
2 70569  97.2852 315.4128 0010484 258.0876 163.0700 16.03969316    11
STARLINK-37494          
1 70570C 26097L   26120.87409722  .00757400  00000+0  11514-2 0  1205
2 70570  97.2852 315.4386 0010516 258.5173 298.9070 16.03995753    12
STARLINK-37541          
1 70571C 26097M   26120.88590278  .00778220  00000+0  11806-2 0  1201
2 70571  97.2852 315.4515 0010440 258.3593   7.2135 16.04020357    10
STARLINK-37551          
1 70572C 26097N   26120.85673611  .00823680  00000+0  12492-2 0  1205
2 70572  97.2851 315.4197 0010550 257.6312 199.6610 16.04000474    11
STARLINK-37566          
1 70573C 26097P   26120.88034722  .00770990  00000+0  11696-2 0  1203
2 70573  97.2850 315.4454 0010489 257.9993 335.5459 16.04023777    19
STARLINK-37544          
1 70574C 26097Q   26120.83937500  .00960370  00000+0  14506-2 0  1201
2 70574  97.2849 315.4006 0010447 257.5995  99.5446 16.03999688    18
STARLINK-37493          
1 70575C 26097R   26120.88590278  .00786710  00000+0  11905-2 0  1208
2 70575  97.2850 315.4515 0010468 257.7146   7.9468 16.04057662    14
STARLINK-37543          
1 70576C 26097S   26120.84493056  .00850580  00000+0  12871-2 0  1201
2 70576  97.2849 315.4067 0010504 256.9080 132.3411 16.04024244    15
STARLINK-37477          
1 70577C 26097T   26120.86229167  .00841620  00000+0  12720-2 0  1202
2 70577  97.2849 315.4257 0010614 256.9972 232.4418 16.04046211    16
